{"type":"FeatureCollection", "features": [
{"type":"Feature","geometry":{"type":"Polygon","coordinates":[[[121.02935,14.55025],[121.03224,14.55271],[121.03284,14.55326],[121.03305,14.55344],[121.03351,14.55375],[121.03465,14.55471],[121.03492,14.55491],[121.03469,14.55515],[121.03303,14.55731],[121.03244,14.55802],[121.03182,14.55869],[121.03143,14.55908],[121.03071,14.55971],[121.03021,14.5601],[121.02982,14.56036],[121.02923,14.56074],[121.02876,14.561],[121.02782,14.56144],[121.02742,14.56063],[121.02715,14.56011],[121.02627,14.55834],[121.02438,14.55468],[121.0251,14.55421],[121.02573,14.55378],[121.02647,14.55319],[121.02685,14.55285],[121.02739,14.55236],[121.02807,14.55167],[121.02901,14.55065],[121.02935,14.55025]]]},"properties":{"name":"Urdaneta"}},
{"type":"Feature","geometry":{"type":"Polygon","coordinates":[[[121.02438,14.55468],[121.02385,14.55504],[121.02008,14.55749],[121.01889,14.55827],[121.01648,14.55984],[121.01601,14.56022],[121.01574,14.56058],[121.01561,14.56082],[121.01552,14.56109],[121.0155,14.56129],[121.01481,14.56117],[121.01439,14.56008],[121.01401,14.55903],[121.01398,14.55883],[121.01399,14.5585],[121.0146,14.5553],[121.01462,14.55511],[121.01532,14.55171],[121.01593,14.54878],[121.01603,14.5486],[121.01648,14.5477],[121.0172,14.54638],[121.01795,14.54494],[121.01848,14.54396],[121.0194,14.54233],[121.01954,14.54207],[121.01991,14.54233],[121.02072,14.54298],[121.02343,14.54528],[121.02585,14.54729],[121.02628,14.54765],[121.0285,14.54956],[121.02935,14.55025],[121.02901,14.55065],[121.02807,14.55167],[121.02739,14.55236],[121.02685,14.55285],[121.02647,14.55319],[121.02573,14.55378],[121.0251,14.55421],[121.02438,14.55468]]]},"properties":{"name":"San Lorenzo"}},
{"type":"Feature","geometry":{"type":"Polygon","coordinates":[[[121.03686,14.55661],[121.04073,14.55984],[121.04048,14.56014],[121.03993,14.56091],[121.03957,14.56161],[121.03925,14.56234],[121.03902,14.56293],[121.03885,14.56289],[121.03631,14.5629],[121.03552,14.5629],[121.03477,14.56292],[121.03394,14.56274],[121.03382,14.56267],[121.03295,14.56175],[121.03278,14.5616],[121.03135,14.5629],[121.03079,14.56228],[121.03038,14.56255],[121.02995,14.56258],[121.02948,14.56255],[121.02918,14.56248],[121.02867,14.56241],[121.0286,14.56265],[121.02846,14.56282],[121.02914,14.5641],[121.0284,14.56469],[121.02826,14.56482],[121.02402,14.56641],[121.02357,14.56661],[121.02309,14.56542],[121.02197,14.56586],[121.02075,14.56274],[121.01641,14.56436],[121.0163,14.56433],[121.016,14.56444],[121.01584,14.56408],[121.01598,14.5639],[121.01602,14.56375],[121.01567,14.56285],[121.01549,14.56236],[121.01542,14.56204],[121.01545,14.5616],[121.0155,14.56129],[121.01552,14.56109],[121.01561,14.56082],[121.01574,14.56058],[121.01601,14.56022],[121.01648,14.55984],[121.01889,14.55827],[121.02008,14.55749],[121.02385,14.55504],[121.02438,14.55468],[121.02627,14.55834],[121.02715,14.56011],[121.02742,14.56063],[121.02782,14.56144],[121.02876,14.561],[121.02923,14.56074],[121.02982,14.56036],[121.03021,14.5601],[121.03071,14.55971],[121.03143,14.55908],[121.03182,14.55869],[121.03244,14.55802],[121.03303,14.55731],[121.03469,14.55515],[121.03492,14.55491],[121.03526,14.55519],[121.03615,14.55597],[121.03686,14.55661]]]},"properties":{"name":"Bel-Air"}},
{"type":"Feature","geometry":{"type":"Polygon","coordinates":[[[121.016,14.56444],[121.01565,14.56458],[121.01498,14.5649],[121.01442,14.56522],[121.01414,14.56543],[121.01373,14.56577],[121.0133,14.56622],[121.01301,14.5666],[121.01295,14.56674],[121.01096,14.56686],[121.01049,14.56688],[121.00721,14.56709],[121.00463,14.56724],[121.00441,14.56726],[121.00331,14.56619],[121.00308,14.566],[121.00379,14.56473],[121.00479,14.5627],[121.00553,14.56142],[121.00749,14.55777],[121.00822,14.55811],[121.00981,14.55893],[121.01072,14.55941],[121.01214,14.56013],[121.01307,14.5606],[121.01363,14.56083],[121.0143,14.56106],[121.01481,14.56117],[121.0155,14.56129],[121.01545,14.5616],[121.01542,14.56204],[121.01549,14.56236],[121.01567,14.56285],[121.01602,14.56375],[121.01598,14.5639],[121.01584,14.56408],[121.016,14.56444]]]},"properties":{"name":"San Antonio"}},
{"type":"Feature","geometry":{"type":"Polygon","coordinates":[[[121.01954,14.54207],[121.0194,14.54233],[121.01848,14.54396],[121.01795,14.54494],[121.0172,14.54638],[121.01648,14.5477],[121.01603,14.5486],[121.01495,14.5484],[121.01481,14.54835],[121.01359,14.54775],[121.01341,14.5477],[121.01303,14.54751],[121.01236,14.54875],[121.01214,14.54866],[121.01173,14.54854],[121.01077,14.54839],[121.00933,14.54816],[121.00909,14.54809],[121.00927,14.54761],[121.00927,14.5475],[121.00915,14.54709],[121.00873,14.54662],[121.00856,14.54612],[121.00858,14.54586],[121.00875,14.5451],[121.00886,14.54483],[121.00911,14.54443],[121.00937,14.54418],[121.00952,14.54386],[121.0097,14.5437],[121.0097,14.54358],[121.00968,14.54254],[121.00966,14.54245],[121.00948,14.54221],[121.00946,14.54177],[121.00937,14.54131],[121.00934,14.541],[121.00921,14.54085],[121.00908,14.54076],[121.00903,14.54058],[121.0089,14.54031],[121.00899,14.54017],[121.011,14.54021],[121.01097,14.5398],[121.0113,14.53978],[121.01175,14.53958],[121.01162,14.53892],[121.01259,14.53905],[121.01297,14.53912],[121.01338,14.53921],[121.01382,14.53933],[121.01478,14.53965],[121.01561,14.53996],[121.01631,14.54025],[121.01725,14.54069],[121.01786,14.54101],[121.01891,14.54162],[121.01954,14.54207]]]},"properties":{"name":"Bangkal"}},
{"type":"Feature","geometry":{"type":"Polygon","coordinates":[[[121.00749,14.55777],[121.00553,14.56142],[121.00479,14.5627],[121.00379,14.56473],[121.00308,14.566],[121.00284,14.56578],[121.00225,14.56515],[121.00074,14.56362],[121.00046,14.56334],[121.00021,14.56308],[120.99992,14.56283],[120.99905,14.56196],[120.99877,14.56176],[120.99901,14.56151],[120.99934,14.56147],[120.99941,14.56139],[120.9994,14.56125],[120.99911,14.56058],[120.99898,14.56011],[120.99888,14.55971],[120.99898,14.55952],[120.99944,14.55945],[120.99965,14.55928],[120.99974,14.55894],[120.9998,14.55822],[121.00007,14.55805],[121.00011,14.55793],[120.99975,14.55738],[120.9997,14.55692],[120.9997,14.55647],[120.99995,14.55622],[121.00003,14.55586],[121.00016,14.55508],[121.00025,14.55486],[121.00092,14.55514],[121.00134,14.55528],[121.00183,14.55539],[121.00245,14.55556],[121.00301,14.55574],[121.0039,14.55607],[121.00458,14.55635],[121.00629,14.55721],[121.00706,14.55762],[121.00749,14.55777]]]},"properties":{"name":"Palanan"}},
{"type":"Feature","geometry":{"type":"Polygon","coordinates":[[[121.03751,14.56743],[121.03659,14.56722],[121.03573,14.56721],[121.03492,14.56727],[121.03393,14.56754],[121.03302,14.56828],[121.03158,14.56957],[121.03051,14.57062],[121.02749,14.57312],[121.02714,14.5727],[121.0259,14.57359],[121.02568,14.57289],[121.02652,14.57223],[121.0255,14.57101],[121.02476,14.57004],[121.02459,14.56962],[121.02413,14.56819],[121.02395,14.56772],[121.02357,14.56661],[121.02402,14.56641],[121.02826,14.56482],[121.0284,14.56469],[121.02914,14.5641],[121.02846,14.56282],[121.0286,14.56265],[121.02867,14.56241],[121.02918,14.56248],[121.02948,14.56255],[121.02995,14.56258],[121.03038,14.56255],[121.03079,14.56228],[121.03135,14.5629],[121.03278,14.5616],[121.03295,14.56175],[121.03382,14.56267],[121.03394,14.56274],[121.03477,14.56292],[121.03552,14.5629],[121.03631,14.5629],[121.03885,14.56289],[121.03902,14.56293],[121.03853,14.56406],[121.03799,14.56537],[121.03795,14.56551],[121.03751,14.56743]]]},"properties":{"name":"Poblacion"}},
{"type":"Feature","geometry":{"type":"Polygon","coordinates":[[[121.02495,14.53212],[121.02462,14.53255],[121.02426,14.53333],[121.02406,14.53372],[121.02291,14.53582],[121.02162,14.53814],[121.02051,14.54019],[121.02022,14.54079],[121.01954,14.54207],[121.01891,14.54162],[121.01786,14.54101],[121.01725,14.54069],[121.01631,14.54025],[121.01561,14.53996],[121.01478,14.53965],[121.01382,14.53933],[121.01338,14.53921],[121.01297,14.53912],[121.01304,14.5386],[121.013,14.5383],[121.01301,14.53785],[121.01297,14.53686],[121.0128,14.53568],[121.01295,14.53561],[121.01285,14.53453],[121.0131,14.53444],[121.01301,14.53398],[121.01296,14.53322],[121.01313,14.53299],[121.01306,14.53281],[121.0126,14.53253],[121.01247,14.53221],[121.01229,14.53205],[121.01221,14.53157],[121.01214,14.53135],[121.01223,14.53112],[121.01232,14.531],[121.01234,14.53069],[121.01218,14.53048],[121.01192,14.53037],[121.0118,14.53012],[121.01195,14.52988],[121.01209,14.52972],[121.01232,14.52976],[121.01258,14.53031],[121.01289,14.53045],[121.01307,14.53045],[121.01343,14.53033],[121.01367,14.53022],[121.01383,14.53023],[121.01574,14.53094],[121.01587,14.53087],[121.01595,14.53061],[121.01616,14.52978],[121.01622,14.5297],[121.01683,14.52965],[121.01692,14.52973],[121.01716,14.53008],[121.01729,14.53019],[121.01748,14.53022],[121.01799,14.53011],[121.01834,14.53047],[121.0185,14.53057],[121.01913,14.53055],[121.01937,14.53033],[121.01999,14.53003],[121.02027,14.52986],[121.02057,14.52991],[121.02078,14.53002],[121.02119,14.53018],[121.02184,14.53032],[121.0222,14.53054],[121.02264,14.53087],[121.02305,14.53082],[121.02317,14.5309],[121.02323,14.53116],[121.02335,14.53124],[121.02371,14.53118],[121.02418,14.53114],[121.02429,14.53121],[121.02434,14.53146],[121.02446,14.53149],[121.02481,14.53143],[121.0249,14.53149],[121.02492,14.53191],[121.02495,14.53212]]]},"properties":{"name":"Magallanes"}},
{"type":"Feature","geometry":{"type":"Polygon","coordinates":[[[121.03636,14.53592],[121.03621,14.53632],[121.03564,14.53619],[121.03537,14.53687],[121.03503,14.53762],[121.03457,14.5384],[121.03429,14.53878],[121.03395,14.53917],[121.03268,14.54018],[121.03218,14.54074],[121.03186,14.54114],[121.03137,14.54188],[121.03113,14.5424],[121.03088,14.54303],[121.03011,14.54509],[121.03315,14.54618],[121.03303,14.54655],[121.03297,14.54682],[121.03295,14.54713],[121.03297,14.54748],[121.03303,14.54782],[121.03316,14.54823],[121.03264,14.54845],[121.03035,14.54945],[121.03002,14.54958],[121.02978,14.54975],[121.02935,14.55025],[121.0285,14.54956],[121.02628,14.54765],[121.02585,14.54729],[121.02343,14.54528],[121.02072,14.54298],[121.01991,14.54233],[121.01954,14.54207],[121.02022,14.54079],[121.02051,14.54019],[121.02162,14.53814],[121.02291,14.53582],[121.02406,14.53372],[121.02426,14.53333],[121.02462,14.53255],[121.02495,14.53212],[121.02515,14.53221],[121.02548,14.53222],[121.02652,14.53211],[121.0266,14.53216],[121.02682,14.53252],[121.02711,14.53279],[121.02734,14.53296],[121.02759,14.53306],[121.02783,14.53305],[121.0281,14.53314],[121.02836,14.53326],[121.02887,14.53368],[121.02892,14.53406],[121.02919,14.53403],[121.02935,14.53406],[121.02942,14.53418],[121.02943,14.53432],[121.02956,14.53443],[121.02986,14.53443],[121.03009,14.53431],[121.03017,14.53457],[121.03025,14.53468],[121.03067,14.53487],[121.03136,14.53502],[121.03177,14.53451],[121.03221,14.53455],[121.03246,14.53454],[121.0327,14.53444],[121.03312,14.5342],[121.03359,14.53401],[121.0337,14.53404],[121.03401,14.53437],[121.03438,14.53457],[121.03456,14.53479],[121.03478,14.53518],[121.03531,14.53564],[121.03593,14.53589],[121.03636,14.53592]]]},"properties":{"name":"Dasmariñas"}},
{"type":"Feature","geometry":{"type":"Polygon","coordinates":[[[121.00669,14.5502],[121.0074,14.55037],[121.00691,14.5522],[121.00695,14.55217],[121.00759,14.5522],[121.00799,14.55224],[121.00824,14.5522],[121.00924,14.55239],[121.00998,14.55268],[121.01017,14.5528],[121.00902,14.55498],[121.00749,14.55777],[121.00706,14.55762],[121.00629,14.55721],[121.00458,14.55635],[121.0039,14.55607],[121.00301,14.55574],[121.00245,14.55556],[121.00183,14.55539],[121.00134,14.55528],[121.00092,14.55514],[121.00025,14.55486],[121.00038,14.55467],[121.00064,14.55436],[121.00087,14.5542],[121.00104,14.55403],[121.00118,14.5538],[121.00136,14.5533],[121.00146,14.55301],[121.00152,14.55272],[121.00161,14.55257],[121.00177,14.55243],[121.00217,14.55214],[121.00238,14.55204],[121.00343,14.55163],[121.00418,14.5513],[121.00498,14.55096],[121.00601,14.55046],[121.00669,14.5502]]]},"properties":{"name":"San Isidro"}},
{"type":"Feature","geometry":{"type":"Polygon","coordinates":[[[121.01603,14.5486],[121.01593,14.54878],[121.01532,14.55171],[121.01462,14.55511],[121.0146,14.5553],[121.01399,14.5585],[121.01398,14.55883],[121.01401,14.55903],[121.01439,14.56008],[121.01481,14.56117],[121.0143,14.56106],[121.01363,14.56083],[121.01307,14.5606],[121.01214,14.56013],[121.01072,14.55941],[121.00981,14.55893],[121.00822,14.55811],[121.00749,14.55777],[121.00902,14.55498],[121.01017,14.5528],[121.00998,14.55268],[121.00924,14.55239],[121.00824,14.5522],[121.00799,14.55224],[121.00759,14.5522],[121.00695,14.55217],[121.00691,14.5522],[121.0074,14.55037],[121.00669,14.5502],[121.00691,14.55012],[121.00714,14.55007],[121.00724,14.54996],[121.00726,14.54955],[121.00758,14.54901],[121.00767,14.54892],[121.00877,14.54862],[121.00885,14.54856],[121.00909,14.54809],[121.00933,14.54816],[121.01077,14.54839],[121.01173,14.54854],[121.01214,14.54866],[121.01236,14.54875],[121.01303,14.54751],[121.01341,14.5477],[121.01359,14.54775],[121.01481,14.54835],[121.01495,14.5484],[121.01603,14.5486]]]},"properties":{"name":"Pio del Pilar"}},
{"type":"Feature","geometry":{"type":"Polygon","coordinates":[[[121.01804,14.5686],[121.01801,14.56871],[121.01756,14.56888],[121.01716,14.56907],[121.01674,14.56929],[121.01639,14.5695],[121.01601,14.56975],[121.01557,14.57009],[121.01499,14.5706],[121.01417,14.56905],[121.0136,14.568],[121.01312,14.56711],[121.01295,14.56674],[121.01301,14.5666],[121.0133,14.56622],[121.01373,14.56577],[121.01414,14.56543],[121.01442,14.56522],[121.01498,14.5649],[121.01565,14.56458],[121.016,14.56444],[121.0163,14.56433],[121.01641,14.56436],[121.01804,14.5686]]]},"properties":{"name":"Santa Cruz"}},
{"type":"Feature","geometry":{"type":"Polygon","coordinates":[[[121.01791,14.57926],[121.01758,14.5795],[121.01653,14.57938],[121.01448,14.57733],[121.0124,14.57524],[121.01265,14.57502],[121.01283,14.57495],[121.01322,14.57495],[121.0139,14.57514],[121.01494,14.57491],[121.01501,14.57492],[121.01545,14.57519],[121.01562,14.57526],[121.01645,14.57546],[121.01568,14.57619],[121.01517,14.57666],[121.01607,14.57756],[121.01637,14.57784],[121.01641,14.57779],[121.01659,14.57796],[121.01744,14.57877],[121.01748,14.57882],[121.01791,14.57926]]]},"properties":{"name":"Kasilawan"}},
{"type":"Feature","geometry":{"type":"Polygon","coordinates":[[[121.04073,14.55984],[121.04245,14.5613],[121.04302,14.56184],[121.04372,14.56266],[121.04407,14.56315],[121.04434,14.5636],[121.04458,14.56407],[121.04474,14.56443],[121.04499,14.56507],[121.0453,14.56617],[121.04574,14.56774],[121.04598,14.56849],[121.04522,14.56856],[121.04383,14.56876],[121.04327,14.56875],[121.04245,14.56865],[121.04158,14.56838],[121.04035,14.5681],[121.03942,14.5679],[121.03791,14.56751],[121.03751,14.56743],[121.03795,14.56551],[121.03799,14.56537],[121.03853,14.56406],[121.03902,14.56293],[121.03925,14.56234],[121.03957,14.56161],[121.03993,14.56091],[121.04048,14.56014],[121.04073,14.55984]]]},"properties":{"name":"Guadalupe Viejo"}},
{"type":"Feature","geometry":{"type":"Polygon","coordinates":[[[121.04211,14.55923],[121.0432,14.55879],[121.04392,14.5585],[121.04474,14.55815],[121.045,14.55805],[121.0451,14.55804],[121.04587,14.55774],[121.04607,14.55764],[121.04645,14.55738],[121.04664,14.55737],[121.04684,14.55723],[121.04714,14.55708],[121.04744,14.55758],[121.04772,14.55796],[121.04785,14.55828],[121.04863,14.55917],[121.04892,14.55967],[121.04897,14.56014],[121.04894,14.56048],[121.04994,14.56143],[121.04984,14.56146],[121.04965,14.56172],[121.04971,14.56184],[121.04987,14.56191],[121.04998,14.56212],[121.04995,14.56229],[121.05007,14.56268],[121.04999,14.56293],[121.04997,14.56312],[121.04983,14.56331],[121.04963,14.56347],[121.04933,14.56348],[121.04911,14.56357],[121.04883,14.56391],[121.04873,14.56397],[121.04861,14.56417],[121.04829,14.56447],[121.04817,14.56488],[121.04795,14.56495],[121.04787,14.56504],[121.04781,14.56533],[121.04782,14.56555],[121.04769,14.56589],[121.0476,14.56632],[121.04741,14.56664],[121.04719,14.56689],[121.04714,14.56715],[121.04712,14.56756],[121.04709,14.56785],[121.04713,14.5684],[121.0466,14.56843],[121.04598,14.56849],[121.04574,14.56774],[121.0453,14.56617],[121.04499,14.56507],[121.04474,14.56443],[121.04458,14.56407],[121.04434,14.5636],[121.04407,14.56315],[121.04372,14.56266],[121.04302,14.56184],[121.04245,14.5613],[121.04073,14.55984],[121.04087,14.55971],[121.04211,14.55923]]]},"properties":{"name":"Guadalupe Nuevo"}},
{"type":"Feature","geometry":{"type":"Polygon","coordinates":[[[121.04161,14.55583],[121.04194,14.55669],[121.04252,14.55783],[121.04225,14.55861],[121.04213,14.55902],[121.04211,14.55923],[121.04087,14.55971],[121.04073,14.55984],[121.03686,14.55661],[121.03817,14.55621],[121.03862,14.5561],[121.03984,14.55585],[121.04049,14.55578],[121.04118,14.5558],[121.04161,14.55583]]]},"properties":{"name":"Pinagkaisahan"}},
{"type":"Feature","geometry":{"type":"Polygon","coordinates":[[[121.03636,14.53592],[121.03655,14.53592],[121.03673,14.53606],[121.03695,14.53617],[121.0371,14.53619],[121.03739,14.53605],[121.03752,14.53606],[121.03801,14.53623],[121.03835,14.53638],[121.03841,14.5366],[121.03865,14.53676],[121.03868,14.53704],[121.03887,14.53723],[121.03904,14.53736],[121.03919,14.53742],[121.03932,14.53755],[121.03936,14.53768],[121.03927,14.5378],[121.03931,14.53819],[121.03941,14.53876],[121.03938,14.53937],[121.03963,14.53958],[121.03965,14.53972],[121.03974,14.53986],[121.04,14.5399],[121.04017,14.53989],[121.04047,14.53996],[121.0406,14.54003],[121.04062,14.54021],[121.04095,14.54043],[121.04101,14.54062],[121.04142,14.54075],[121.04168,14.54079],[121.04186,14.54069],[121.04217,14.54076],[121.0424,14.54073],[121.04265,14.54066],[121.04282,14.5405],[121.04313,14.54037],[121.04362,14.54057],[121.04405,14.54088],[121.04425,14.54095],[121.04465,14.54089],[121.04485,14.5409],[121.04511,14.54104],[121.04527,14.54121],[121.0455,14.54169],[121.04564,14.54177],[121.04594,14.54185],[121.04601,14.54192],[121.04604,14.54227],[121.04625,14.54247],[121.04594,14.5433],[121.04571,14.54406],[121.04536,14.545],[121.04511,14.54577],[121.04475,14.54679],[121.04425,14.54811],[121.04393,14.54909],[121.04371,14.54983],[121.04358,14.55129],[121.04332,14.55215],[121.04317,14.55273],[121.0428,14.55394],[121.04251,14.55439],[121.04206,14.55512],[121.04167,14.55583],[121.04161,14.55583],[121.04118,14.5558],[121.04049,14.55578],[121.03984,14.55585],[121.03862,14.5561],[121.03817,14.55621],[121.03686,14.55661],[121.03615,14.55597],[121.03526,14.55519],[121.03492,14.55491],[121.03465,14.55471],[121.03351,14.55375],[121.03305,14.55344],[121.03284,14.55326],[121.03224,14.55271],[121.02935,14.55025],[121.02978,14.54975],[121.03002,14.54958],[121.03035,14.54945],[121.03264,14.54845],[121.03316,14.54823],[121.03303,14.54782],[121.03297,14.54748],[121.03295,14.54713],[121.03297,14.54682],[121.03303,14.54655],[121.03315,14.54618],[121.03011,14.54509],[121.03088,14.54303],[121.03113,14.5424],[121.03137,14.54188],[121.03186,14.54114],[121.03218,14.54074],[121.03268,14.54018],[121.03395,14.53917],[121.03429,14.53878],[121.03457,14.5384],[121.03503,14.53762],[121.03537,14.53687],[121.03564,14.53619],[121.03621,14.53632],[121.03636,14.53592]]]},"properties":{"name":"Forbes Park"}},
{"type":"Feature","geometry":{"type":"Polygon","coordinates":[[[121.01053,14.56953],[121.00943,14.5701],[121.00882,14.57043],[121.00892,14.57078],[121.00821,14.57112],[121.00749,14.5704],[121.00462,14.56753],[121.00442,14.56731],[121.00441,14.56726],[121.00463,14.56724],[121.00721,14.56709],[121.01049,14.56688],[121.01096,14.56686],[121.01295,14.56674],[121.01312,14.56711],[121.0136,14.568],[121.0125,14.56855],[121.01053,14.56953]]]},"properties":{"name":"La Paz"}},
{"type":"Feature","geometry":{"type":"Polygon","coordinates":[[[121.02189,14.57686],[121.01969,14.57816],[121.01791,14.57926],[121.01748,14.57882],[121.01744,14.57877],[121.01659,14.57796],[121.01641,14.57779],[121.01637,14.57784],[121.01607,14.57756],[121.01517,14.57666],[121.01568,14.57619],[121.01645,14.57546],[121.01668,14.57522],[121.01602,14.57288],[121.01653,14.57272],[121.01844,14.57203],[121.0192,14.57176],[121.01932,14.57197],[121.0197,14.57202],[121.02044,14.57229],[121.02086,14.57427],[121.02129,14.57611],[121.02156,14.57646],[121.02189,14.57686]]]},"properties":{"name":"Carmona"}},
{"type":"Feature","geometry":{"type":"Polygon","coordinates":[[[121.02749,14.57312],[121.02671,14.57376],[121.02562,14.57454],[121.0251,14.57493],[121.02435,14.57403],[121.02458,14.57382],[121.02253,14.57118],[121.0223,14.57085],[121.02212,14.5704],[121.02195,14.57044],[121.02181,14.56999],[121.02121,14.56841],[121.02114,14.5682],[121.02248,14.5677],[121.02226,14.56707],[121.02241,14.56701],[121.02197,14.56586],[121.02309,14.56542],[121.02357,14.56661],[121.02395,14.56772],[121.02413,14.56819],[121.02459,14.56962],[121.02476,14.57004],[121.0255,14.57101],[121.02652,14.57223],[121.02568,14.57289],[121.0259,14.57359],[121.02714,14.5727],[121.02749,14.57312]]]},"properties":{"name":"Valenzuela"}},
{"type":"Feature","geometry":{"type":"Polygon","coordinates":[[[121.01602,14.57288],[121.01668,14.57522],[121.01645,14.57546],[121.01562,14.57526],[121.01545,14.57519],[121.01501,14.57492],[121.01494,14.57491],[121.0139,14.57514],[121.01322,14.57495],[121.01283,14.57495],[121.01265,14.57502],[121.0124,14.57524],[121.01216,14.57502],[121.01248,14.57464],[121.01293,14.57407],[121.0132,14.57356],[121.01302,14.57345],[121.01293,14.57314],[121.01281,14.57297],[121.01258,14.57283],[121.01274,14.57269],[121.01267,14.57255],[121.01257,14.57261],[121.01222,14.57272],[121.01194,14.57218],[121.01138,14.57115],[121.01109,14.57058],[121.01053,14.56953],[121.0125,14.56855],[121.0136,14.568],[121.01417,14.56905],[121.01499,14.5706],[121.01539,14.57135],[121.01558,14.57169],[121.01566,14.57177],[121.0158,14.57205],[121.01587,14.57228],[121.01602,14.57288]]]},"properties":{"name":"Tejeros"}},
{"type":"Feature","geometry":{"type":"Polygon","coordinates":[[[121.01053,14.56953],[121.01109,14.57058],[121.01138,14.57115],[121.01194,14.57218],[121.01222,14.57272],[121.01257,14.57261],[121.01267,14.57255],[121.01274,14.57269],[121.01258,14.57283],[121.01281,14.57297],[121.01293,14.57314],[121.01302,14.57345],[121.0132,14.57356],[121.01293,14.57407],[121.01248,14.57464],[121.01216,14.57502],[121.01127,14.57415],[121.01019,14.57312],[121.0099,14.57282],[121.00821,14.57112],[121.00892,14.57078],[121.00882,14.57043],[121.00943,14.5701],[121.01053,14.56953]]]},"properties":{"name":"Singkamas"}},
{"type":"Feature","geometry":{"type":"Polygon","coordinates":[[[121.0251,14.57493],[121.02254,14.57645],[121.02189,14.57686],[121.02156,14.57646],[121.02129,14.57611],[121.02086,14.57427],[121.02044,14.57229],[121.0197,14.57202],[121.01932,14.57197],[121.0192,14.57176],[121.01844,14.57203],[121.01653,14.57272],[121.01602,14.57288],[121.01587,14.57228],[121.0158,14.57205],[121.01566,14.57177],[121.01558,14.57169],[121.01539,14.57135],[121.01499,14.5706],[121.01557,14.57009],[121.01601,14.56975],[121.01639,14.5695],[121.01674,14.56929],[121.01716,14.56907],[121.01756,14.56888],[121.01801,14.56871],[121.01804,14.5686],[121.02216,14.5671],[121.02226,14.56707],[121.02248,14.5677],[121.02114,14.5682],[121.02121,14.56841],[121.02181,14.56999],[121.02195,14.57044],[121.02212,14.5704],[121.0223,14.57085],[121.02253,14.57118],[121.02458,14.57382],[121.02435,14.57403],[121.0251,14.57493]]]},"properties":{"name":"Olympia"}}
]}